CCSDS_OMM_VERS = 2.0
CREATION_DATE  = 
ORIGINATOR     = 

OBJECT_NAME    = ASTRO-H (HITOMI)
OBJECT_ID      = 2016-012A
CENTER_NAME    = EARTH
REF_FRAME      = TEME
TIME_SYSTEM    = UTC
MEAN_ELEMENT_THEORY = SGP/SGP4

EPOCH          = 2026-01-01T12:41:17.596896
MEAN_MOTION    = 15.09505188
ECCENTRICITY   = .0009587
INCLINATION    = 31.0004
RA_OF_ASC_NODE = 69.7828
ARG_OF_PERICENTER = 17.5046
MEAN_ANOMALY   = 342.5921

EPHEMERIS_TYPE = 0
CLASSIFICATION_TYPE = U
NORAD_CAT_ID   = 41337
ELEMENT_SET_NO = 999
REV_AT_EPOCH   = 54207
BSTAR          = .35289E-3
MEAN_MOTION_DOT = .5896E-4
MEAN_MOTION_DDOT = 0

CCSDS_OMM_VERS = 2.0
CREATION_DATE  = 
ORIGINATOR     = 

OBJECT_NAME    = HXMT (HUIYAN)
OBJECT_ID      = 2017-034A
CENTER_NAME    = EARTH
REF_FRAME      = TEME
TIME_SYSTEM    = UTC
MEAN_ELEMENT_THEORY = SGP/SGP4

EPOCH          = 2026-01-01T22:44:04.566048
MEAN_MOTION    = 15.16524887
ECCENTRICITY   = .00321551
INCLINATION    = 43.0156
RA_OF_ASC_NODE = 27.4733
ARG_OF_PERICENTER = 175.2086
MEAN_ANOMALY   = 184.9075

EPHEMERIS_TYPE = 0
CLASSIFICATION_TYPE = U
NORAD_CAT_ID   = 42758
ELEMENT_SET_NO = 999
REV_AT_EPOCH   = 47240
BSTAR          = .55133455E-3
MEAN_MOTION_DOT = .10864E-3
MEAN_MOTION_DDOT = 0

CCSDS_OMM_VERS = 2.0
CREATION_DATE  = 
ORIGINATOR     = 

OBJECT_NAME    = CZ-2C R/B
OBJECT_ID      = 2018-054D
CENTER_NAME    = EARTH
REF_FRAME      = TEME
TIME_SYSTEM    = UTC
MEAN_ELEMENT_THEORY = SGP/SGP4

EPOCH          = 2026-01-01T11:52:11.311968
MEAN_MOTION    = 15.78878973
ECCENTRICITY   = .0012791
INCLINATION    = 35.1337
RA_OF_ASC_NODE = 46.5004
ARG_OF_PERICENTER = 340.1657
MEAN_ANOMALY   = 19.8579

EPHEMERIS_TYPE = 0
CLASSIFICATION_TYPE = U
NORAD_CAT_ID   = 43521
ELEMENT_SET_NO = 999
REV_AT_EPOCH   = 41817
BSTAR          = .89275E-3
MEAN_MOTION_DOT = .167923E-2
MEAN_MOTION_DDOT = 0

CCSDS_OMM_VERS = 2.0
CREATION_DATE  = 
ORIGINATOR     = 

OBJECT_NAME    = SAOCOM 1A
OBJECT_ID      = 2018-076A
CENTER_NAME    = EARTH
REF_FRAME      = TEME
TIME_SYSTEM    = UTC
MEAN_ELEMENT_THEORY = SGP/SGP4

EPOCH          = 2026-01-01T23:49:20.685792
MEAN_MOTION    = 14.82157289
ECCENTRICITY   = .00013527
INCLINATION    = 97.8844
RA_OF_ASC_NODE = 191.1194
ARG_OF_PERICENTER = 81.9383
MEAN_ANOMALY   = 278.1984

EPHEMERIS_TYPE = 0
CLASSIFICATION_TYPE = U
NORAD_CAT_ID   = 43641
ELEMENT_SET_NO = 999
REV_AT_EPOCH   = 39148
BSTAR          = -.22045377E-4
MEAN_MOTION_DOT = -.228E-5
MEAN_MOTION_DDOT = 0

CCSDS_OMM_VERS = 2.0
CREATION_DATE  = 
ORIGINATOR     = 

OBJECT_NAME    = H-2A R/B
OBJECT_ID      = 2018-084L
CENTER_NAME    = EARTH
REF_FRAME      = TEME
TIME_SYSTEM    = UTC
MEAN_ELEMENT_THEORY = SGP/SGP4

EPOCH          = 2026-01-01T22:18:20.131488
MEAN_MOTION    = 15.38246209
ECCENTRICITY   = .00260911
INCLINATION    = 98.8763
RA_OF_ASC_NODE = 205.2061
ARG_OF_PERICENTER = 255.4455
MEAN_ANOMALY   = 104.3891

EPHEMERIS_TYPE = 0
CLASSIFICATION_TYPE = U
NORAD_CAT_ID   = 43682
ELEMENT_SET_NO = 999
REV_AT_EPOCH   = 39550
BSTAR          = .8279408E-3
MEAN_MOTION_DOT = .31547E-3
MEAN_MOTION_DDOT = 0

CCSDS_OMM_VERS = 2.0
CREATION_DATE  = 
ORIGINATOR     = 

OBJECT_NAME    = SAOCOM 1B
OBJECT_ID      = 2020-059A
CENTER_NAME    = EARTH
REF_FRAME      = TEME
TIME_SYSTEM    = UTC
MEAN_ELEMENT_THEORY = SGP/SGP4

EPOCH          = 2026-01-01T22:57:06.261408
MEAN_MOTION    = 14.82167695
ECCENTRICITY   = .00014901
INCLINATION    = 97.8842
RA_OF_ASC_NODE = 190.1834
ARG_OF_PERICENTER = 84.4500
MEAN_ANOMALY   = 275.6883

EPHEMERIS_TYPE = 0
CLASSIFICATION_TYPE = U
NORAD_CAT_ID   = 46265
ELEMENT_SET_NO = 999
REV_AT_EPOCH   = 28886
BSTAR          = .22165587E-3
MEAN_MOTION_DOT = .1713E-4
MEAN_MOTION_DDOT = 0

CCSDS_OMM_VERS = 2.0
CREATION_DATE  = 
ORIGINATOR     = 

OBJECT_NAME    = CSS (TIANHE)
OBJECT_ID      = 2021-035A
CENTER_NAME    = EARTH
REF_FRAME      = TEME
TIME_SYSTEM    = UTC
MEAN_ELEMENT_THEORY = SGP/SGP4

EPOCH          = 2026-01-01T22:48:00.000864
MEAN_MOTION    = 15.60041329
ECCENTRICITY   = .00101484
INCLINATION    = 41.4663
RA_OF_ASC_NODE = 253.9368
ARG_OF_PERICENTER = 200.7574
MEAN_ANOMALY   = 159.2853

EPHEMERIS_TYPE = 0
CLASSIFICATION_TYPE = U
NORAD_CAT_ID   = 48274
ELEMENT_SET_NO = 999
REV_AT_EPOCH   = 26718
BSTAR          = .32147889E-3
MEAN_MOTION_DOT = .26593E-3
MEAN_MOTION_DDOT = 0

CCSDS_OMM_VERS = 2.0
CREATION_DATE  = 
ORIGINATOR     = 

OBJECT_NAME    = COSMOS 2550
OBJECT_ID      = 2021-056A
CENTER_NAME    = EARTH
REF_FRAME      = TEME
TIME_SYSTEM    = UTC
MEAN_ELEMENT_THEORY = SGP/SGP4

EPOCH          = 2025-12-31T12:08:23.692128
MEAN_MOTION    = 15.33836624
ECCENTRICITY   = .00083314
INCLINATION    = 67.1441
RA_OF_ASC_NODE = 247.1723
ARG_OF_PERICENTER = 269.3764
MEAN_ANOMALY   = 90.6436

EPHEMERIS_TYPE = 0
CLASSIFICATION_TYPE = U
NORAD_CAT_ID   = 48865
ELEMENT_SET_NO = 999
REV_AT_EPOCH   = 25300
BSTAR          = .698646E-6
MEAN_MOTION_DOT = -.169E-5
MEAN_MOTION_DDOT = 0

CCSDS_OMM_VERS = 2.0
CREATION_DATE  = 
ORIGINATOR     = 

OBJECT_NAME    = CZ-2C R/B
OBJECT_ID      = 2022-058K
CENTER_NAME    = EARTH
REF_FRAME      = TEME
TIME_SYSTEM    = UTC
MEAN_ELEMENT_THEORY = SGP/SGP4

EPOCH          = 2026-01-01T20:51:36.562752
MEAN_MOTION    = 15.49711231
ECCENTRICITY   = .00439131
INCLINATION    = 50.1921
RA_OF_ASC_NODE = 300.8122
ARG_OF_PERICENTER = 281.0267
MEAN_ANOMALY   = 78.5764

EPHEMERIS_TYPE = 0
CLASSIFICATION_TYPE = U
NORAD_CAT_ID   = 52794
ELEMENT_SET_NO = 999
REV_AT_EPOCH   = 19975
BSTAR          = .68492657E-3
MEAN_MOTION_DOT = .40017E-3
MEAN_MOTION_DDOT = 0

CCSDS_OMM_VERS = 2.0
CREATION_DATE  = 
ORIGINATOR     = 

OBJECT_NAME    = CZ-2C R/B
OBJECT_ID      = 2022-132E
CENTER_NAME    = EARTH
REF_FRAME      = TEME
TIME_SYSTEM    = UTC
MEAN_ELEMENT_THEORY = SGP/SGP4

EPOCH          = 2026-01-01T22:27:19.522368
MEAN_MOTION    = 15.56211768
ECCENTRICITY   = .00192683
INCLINATION    = 97.2937
RA_OF_ASC_NODE = 3.5396
ARG_OF_PERICENTER = 346.2019
MEAN_ANOMALY   = 13.8706

EPHEMERIS_TYPE = 0
CLASSIFICATION_TYPE = U
NORAD_CAT_ID   = 54039
ELEMENT_SET_NO = 999
REV_AT_EPOCH   = 17997
BSTAR          = .67744845E-3
MEAN_MOTION_DOT = .4798E-3
MEAN_MOTION_DDOT = 0

CCSDS_OMM_VERS = 2.0
CREATION_DATE  = 
ORIGINATOR     = 

OBJECT_NAME    = GSLV R/B
OBJECT_ID      = 2022-138AN
CENTER_NAME    = EARTH
REF_FRAME      = TEME
TIME_SYSTEM    = UTC
MEAN_ELEMENT_THEORY = SGP/SGP4

EPOCH          = 2026-01-01T22:05:14.451360
MEAN_MOTION    = 14.96255314
ECCENTRICITY   = .00233415
INCLINATION    = 87.3818
RA_OF_ASC_NODE = 188.7140
ARG_OF_PERICENTER = 38.9409
MEAN_ANOMALY   = 321.3498

EPHEMERIS_TYPE = 0
CLASSIFICATION_TYPE = U
NORAD_CAT_ID   = 54149
ELEMENT_SET_NO = 999
REV_AT_EPOCH   = 17394
BSTAR          = .49495921E-3
MEAN_MOTION_DOT = .5643E-4
MEAN_MOTION_DDOT = 0

CCSDS_OMM_VERS = 2.0
CREATION_DATE  = 
ORIGINATOR     = 

OBJECT_NAME    = XRISM
OBJECT_ID      = 2023-137A
CENTER_NAME    = EARTH
REF_FRAME      = TEME
TIME_SYSTEM    = UTC
MEAN_ELEMENT_THEORY = SGP/SGP4

EPOCH          = 2026-01-01T06:18:25.055136
MEAN_MOTION    = 15.10582373
ECCENTRICITY   = .0007592
INCLINATION    = 31.0036
RA_OF_ASC_NODE = 359.4782
ARG_OF_PERICENTER = 83.1745
MEAN_ANOMALY   = 276.9756

EPHEMERIS_TYPE = 0
CLASSIFICATION_TYPE = U
NORAD_CAT_ID   = 57800
ELEMENT_SET_NO = 999
REV_AT_EPOCH   = 12758
BSTAR          = .54493E-3
MEAN_MOTION_DOT = .9325E-4
MEAN_MOTION_DDOT = 0

CCSDS_OMM_VERS = 2.0
CREATION_DATE  = 
ORIGINATOR     = 

OBJECT_NAME    = ACS3
OBJECT_ID      = 2024-077B
CENTER_NAME    = EARTH
REF_FRAME      = TEME
TIME_SYSTEM    = UTC
MEAN_ELEMENT_THEORY = SGP/SGP4

EPOCH          = 2026-01-01T21:29:31.109280
MEAN_MOTION    = 13.86596828
ECCENTRICITY   = .00705173
INCLINATION    = 97.2533
RA_OF_ASC_NODE = 317.9971
ARG_OF_PERICENTER = 287.7479
MEAN_ANOMALY   = 71.5996

EPHEMERIS_TYPE = 0
CLASSIFICATION_TYPE = U
NORAD_CAT_ID   = 59588
ELEMENT_SET_NO = 999
REV_AT_EPOCH   = 8493
BSTAR          = .33810756E-1
MEAN_MOTION_DOT = .40241E-3
MEAN_MOTION_DDOT = 0

CCSDS_OMM_VERS = 2.0
CREATION_DATE  = 
ORIGINATOR     = 

OBJECT_NAME    = SZ-21 MODULE
OBJECT_ID      = 2025-246C
CENTER_NAME    = EARTH
REF_FRAME      = TEME
TIME_SYSTEM    = UTC
MEAN_ELEMENT_THEORY = SGP/SGP4

EPOCH          = 2026-01-01T17:31:19.915968
MEAN_MOTION    = 15.63691030
ECCENTRICITY   = .00026118
INCLINATION    = 41.4758
RA_OF_ASC_NODE = 254.0025
ARG_OF_PERICENTER = 15.6168
MEAN_ANOMALY   = 344.4753

EPHEMERIS_TYPE = 0
CLASSIFICATION_TYPE = U
NORAD_CAT_ID   = 66515
ELEMENT_SET_NO = 999
REV_AT_EPOCH   = 757
BSTAR          = .43809072E-3
MEAN_MOTION_DOT = .41934E-3
MEAN_MOTION_DDOT = 0

